start=new Date('2023-02-24T00:00:00.000Z').valueOf();
sats=[{"EPHEMERIS_TYPE":"0","TLE_LINE2":"2 52341  53.2146 152.8989 0001336 109.4849 250.6288 15.08845510 48042","CLASSIFICATION_TYPE":"U","REV_AT_EPOCH":"4804","OBJECT_ID":"2022-045L","ECCENTRICITY":"0.00013360","ARG_OF_PERICENTER":"109.4849","PERIOD":"95.437","SITE":"AFETR","ELEMENT_SET_NO":"999","CENTER_NAME":"EARTH","MEAN_MOTION_DOT":"0.00013492","DECAY_DATE":null,"NORAD_CAT_ID":"52341","OBJECT_NAME":"STARLINK-3843","SEMIMAJOR_AXIS":"6917.864","LAUNCH_DATE":"2022-04-29","FILE":"3828819","MEAN_MOTION":"15.08845510","OBJECT_TYPE":"PAYLOAD","BSTAR":"0.00086402000000","EPOCH":"2023-02-23T12:18:18.900864","INCLINATION":"53.2146","GP_ID":"226568254","TLE_LINE1":"1 52341U 22045L   23054.51271876  .00013492  00000-0  86402-3 0  9991","REF_FRAME":"TEME","RA_OF_ASC_NODE":"152.8989","PERIAPSIS":"538.804","MEAN_ANOMALY":"250.6288","MEAN_MOTION_DDOT":"0.0000000000000","MEAN_ELEMENT_THEORY":"SGP4","COUNTRY_CODE":"US","APOAPSIS":"540.653","RCS_SIZE":"LARGE","TIME_SYSTEM":"UTC"},{"LAUNCH_DATE":"2022-04-29","OBJECT_TYPE":"PAYLOAD","BSTAR":"0.00128280000000","FILE":"3828585","MEAN_MOTION":"15.08840514","TLE_LINE1":"1 52342U 22045M   23054.53204095  .00020187  00000-0  12828-2 0  9992","REF_FRAME":"TEME","GP_ID":"226540462","INCLINATION":"53.2164","EPOCH":"2023-02-23T12:46:08.338080","RA_OF_ASC_NODE":"142.8200","PERIAPSIS":"538.905","MEAN_ELEMENT_THEORY":"SGP4","MEAN_MOTION_DDOT":"0.0000000000000","MEAN_ANOMALY":"274.8624","COUNTRY_CODE":"US","TIME_SYSTEM":"UTC","RCS_SIZE":"LARGE","APOAPSIS":"540.583","OBJECT_ID":"2022-045M","REV_AT_EPOCH":"4818","TLE_LINE2":"2 52342  53.2164 142.8200 0001213  85.2507 274.8624 15.08840514 48180","EPHEMERIS_TYPE":"0","CLASSIFICATION_TYPE":"U","ARG_OF_PERICENTER":"85.2507","ECCENTRICITY":"0.00012130","PERIOD":"95.438","CENTER_NAME":"EARTH","SITE":"AFETR","ELEMENT_SET_NO":"999","MEAN_MOTION_DOT":"0.00020187","DECAY_DATE":null,"OBJECT_NAME":"STARLINK-3850","NORAD_CAT_ID":"52342","SEMIMAJOR_AXIS":"6917.879"},{"LAUNCH_DATE":"2022-04-29","MEAN_MOTION":"15.08847392","FILE":"3828585","BSTAR":"-0.00004586200000","OBJECT_TYPE":"PAYLOAD","EPOCH":"2023-02-23T13:04:37.295040","REF_FRAME":"TEME","TLE_LINE1":"1 52343U 22045N   23054.54487610 -.00001018  00000-0 -45862-4 0  9990","GP_ID":"226540259","INCLINATION":"53.2141","RA_OF_ASC_NODE":"152.7551","PERIAPSIS":"538.780","MEAN_ANOMALY":"249.9018","MEAN_ELEMENT_THEORY":"SGP4","MEAN_MOTION_DDOT":"0.0000000000000","COUNTRY_CODE":"US","RCS_SIZE":"LARGE","APOAPSIS":"540.666","TIME_SYSTEM":"UTC","TLE_LINE2":"2 52343  53.2141 152.7551 0001363 110.2120 249.9018 15.08847392 48058","EPHEMERIS_TYPE":"0","CLASSIFICATION_TYPE":"U","REV_AT_EPOCH":"4805","OBJECT_ID":"2022-045N","ECCENTRICITY":"0.00013630","ARG_OF_PERICENTER":"110.2120","PERIOD":"95.437","ELEMENT_SET_NO":"999","SITE":"AFETR","CENTER_NAME":"EARTH","MEAN_MOTION_DOT":"-0.00001018","DECAY_DATE":null,"OBJECT_NAME":"STARLINK-3849","NORAD_CAT_ID":"52343","SEMIMAJOR_AXIS":"6917.858"},{"RCS_SIZE":"LARGE","APOAPSIS":"540.719","TIME_SYSTEM":"UTC","COUNTRY_CODE":"US","MEAN_ANOMALY":"266.4447","MEAN_ELEMENT_THEORY":"SGP4","MEAN_MOTION_DDOT":"0.0000000000000","PERIAPSIS":"538.783","RA_OF_ASC_NODE":"143.1826","EPOCH":"2023-02-23T11:09:23.339808","REF_FRAME":"TEME","TLE_LINE1":"1 52344U 22045P   23054.46485347  .00001523  00000-0  11377-3 0  9999","GP_ID":"226569007","INCLINATION":"53.2158","FILE":"3828819","MEAN_MOTION":"15.08838206","OBJECT_TYPE":"PAYLOAD","BSTAR":"0.00011377000000","LAUNCH_DATE":"2022-04-29","SEMIMAJOR_AXIS":"6917.886","OBJECT_NAME":"STARLINK-3851","NORAD_CAT_ID":"52344","DECAY_DATE":null,"MEAN_MOTION_DOT":"0.00001523","SITE":"AFETR","ELEMENT_SET_NO":"999","CENTER_NAME":"EARTH","PERIOD":"95.438","ECCENTRICITY":"0.00013990","ARG_OF_PERICENTER":"93.6705","TLE_LINE2":"2 52344  53.2158 143.1826 0001399  93.6705 266.4447 15.08838206 48175","EPHEMERIS_TYPE":"0","CLASSIFICATION_TYPE":"U","REV_AT_EPOCH":"4817","OBJECT_ID":"2022-045P"},{"PERIAPSIS":"538.720","MEAN_ELEMENT_THEORY":"SGP4","MEAN_MOTION_DDOT":"0.0000000000000","MEAN_ANOMALY":"251.0299","COUNTRY_CODE":"US","TIME_SYSTEM":"UTC","RCS_SIZE":"LARGE","APOAPSIS":"540.790","LAUNCH_DATE":"2022-04-29","OBJECT_TYPE":"PAYLOAD","BSTAR":"-0.00010356000000","FILE":"3828819","MEAN_MOTION":"15.08836935","TLE_LINE1":"1 52345U 22045Q   23054.47588077 -.00001936  00000-0 -10356-3 0  9991","REF_FRAME":"TEME","GP_ID":"226567755","INCLINATION":"53.2166","EPOCH":"2023-02-23T11:25:16.098528","RA_OF_ASC_NODE":"143.0660","MEAN_MOTION_DOT":"-0.00001936","DECAY_DATE":null,"OBJECT_NAME":"STARLINK-3852","NORAD_CAT_ID":"52345","SEMIMAJOR_AXIS":"6917.890","OBJECT_ID":"2022-045Q","REV_AT_EPOCH":"4816","CLASSIFICATION_TYPE":"U","TLE_LINE2":"2 52345  53.2166 143.0660 0001496 109.0856 251.0299 15.08836935 48168","EPHEMERIS_TYPE":"0","ARG_OF_PERICENTER":"109.0856","ECCENTRICITY":"0.00014960","PERIOD":"95.438","CENTER_NAME":"EARTH","SITE":"AFETR","ELEMENT_SET_NO":"999"},{"BSTAR":"0.00139520000000","OBJECT_TYPE":"PAYLOAD","FILE":"3828819","MEAN_MOTION":"15.08843265","LAUNCH_DATE":"2022-04-29","RA_OF_ASC_NODE":"142.8525","INCLINATION":"53.2162","GP_ID":"226568005","REF_FRAME":"TEME","TLE_LINE1":"1 52346U 22045R   23054.52372168  .00021988  00000-0  13952-2 0  9991","EPOCH":"2023-02-23T12:34:09.553152","MEAN_MOTION_DDOT":"0.0000000000000","MEAN_ELEMENT_THEORY":"SGP4","MEAN_ANOMALY":"274.6978","PERIAPSIS":"538.929","TIME_SYSTEM":"UTC","RCS_SIZE":"LARGE","APOAPSIS":"540.542","COUNTRY_CODE":"US","ARG_OF_PERICENTER":"85.4147","ECCENTRICITY":"0.00011660","REV_AT_EPOCH":"4818","OBJECT_ID":"2022-045R","TLE_LINE2":"2 52346  53.2162 142.8525 0001166  85.4147 274.6978 15.08843265 48187","EPHEMERIS_TYPE":"0","CLASSIFICATION_TYPE":"U","CENTER_NAME":"EARTH","ELEMENT_SET_NO":"999","SITE":"AFETR","PERIOD":"95.437","DECAY_DATE":null,"MEAN_MOTION_DOT":"0.00021988","SEMIMAJOR_AXIS":"6917.870","NORAD_CAT_ID":"52346","OBJECT_NAME":"STARLINK-3812"},{"SEMIMAJOR_AXIS":"6917.892","NORAD_CAT_ID":"52347","OBJECT_NAME":"STARLINK-3826","DECAY_DATE":null,"MEAN_MOTION_DOT":"-0.00004738","SITE":"AFETR","ELEMENT_SET_NO":"999","CENTER_NAME":"EARTH","PERIOD":"95.438","ECCENTRICITY":"0.00006780","ARG_OF_PERICENTER":"111.8369","TLE_LINE2":"2 52347  53.2147 141.0186 0000678 111.8369 248.2696 15.08836283 48245","EPHEMERIS_TYPE":"0","CLASSIFICATION_TYPE":"U","REV_AT_EPOCH":"4824","OBJECT_ID":"2022-045S","RCS_SIZE":"LARGE","APOAPSIS":"540.226","TIME_SYSTEM":"UTC","COUNTRY_CODE":"US","MEAN_ANOMALY":"248.2696","MEAN_MOTION_DDOT":"0.0000000000000","MEAN_ELEMENT_THEORY":"SGP4","PERIAPSIS":"539.288","RA_OF_ASC_NODE":"141.0186","EPOCH":"2023-02-23T22:22:22.136160","INCLINATION":"53.2147","GP_ID":"226600344","TLE_LINE1":"1 52347U 22045S   23054.93220065 -.00004738  00000-0 -27982-3 0  9990","REF_FRAME":"TEME","MEAN_MOTION":"15.08836283","FILE":"3830182","BSTAR":"-0.00027982000000","OBJECT_TYPE":"PAYLOAD","LAUNCH_DATE":"2022-04-29"},{"SEMIMAJOR_AXIS":"6917.867","OBJECT_NAME":"STARLINK-3829","NORAD_CAT_ID":"52348","DECAY_DATE":null,"MEAN_MOTION_DOT":"0.00022707","CENTER_NAME":"EARTH","ELEMENT_SET_NO":"999","SITE":"AFETR","PERIOD":"95.437","ARG_OF_PERICENTER":"95.8134","ECCENTRICITY":"0.00011830","REV_AT_EPOCH":"4818","OBJECT_ID":"2022-045T","TLE_LINE2":"2 52348  53.2147 142.8838 0001183  95.8134 264.2993 15.08844489 48180","EPHEMERIS_TYPE":"0","CLASSIFICATION_TYPE":"U","TIME_SYSTEM":"UTC","APOAPSIS":"540.550","RCS_SIZE":"LARGE","COUNTRY_CODE":"US","MEAN_ELEMENT_THEORY":"SGP4","MEAN_MOTION_DDOT":"0.0000000000000","MEAN_ANOMALY":"264.2993","PERIAPSIS":"538.913","RA_OF_ASC_NODE":"142.8838","TLE_LINE1":"1 52348U 22045T   23054.51636318  .00022707  00000-0  14400-2 0  9991","REF_FRAME":"TEME","GP_ID":"226569506","INCLINATION":"53.2147","EPOCH":"2023-02-23T12:23:33.778752","OBJECT_TYPE":"PAYLOAD","BSTAR":"0.00144000000000","MEAN_MOTION":"15.08844489","FILE":"3828819","LAUNCH_DATE":"2022-04-29"},{"NORAD_CAT_ID":"52349","OBJECT_NAME":"STARLINK-3819","SEMIMAJOR_AXIS":"6917.893","MEAN_MOTION_DOT":"0.00004953","DECAY_DATE":null,"PERIOD":"95.438","SITE":"AFETR","ELEMENT_SET_NO":"999","CENTER_NAME":"EARTH","TLE_LINE2":"2 52349  53.2167 142.8322 0001140 113.7954 246.3158 15.08836013 48182","EPHEMERIS_TYPE":"0","CLASSIFICATION_TYPE":"U","OBJECT_ID":"2022-045U","REV_AT_EPOCH":"4818","ECCENTRICITY":"0.00011400","ARG_OF_PERICENTER":"113.7954","COUNTRY_CODE":"US","RCS_SIZE":"LARGE","APOAPSIS":"540.546","TIME_SYSTEM":"UTC","PERIAPSIS":"538.969","MEAN_ANOMALY":"246.3158","MEAN_MOTION_DDOT":"0.0000000000000","MEAN_ELEMENT_THEORY":"SGP4","EPOCH":"2023-02-23T12:39:27.610560","INCLINATION":"53.2167","GP_ID":"226541589","TLE_LINE1":"1 52349U 22045U   23054.52740290  .00004953  00000-0  32910-3 0  9998","REF_FRAME":"TEME","RA_OF_ASC_NODE":"142.8322","LAUNCH_DATE":"2022-04-29","MEAN_MOTION":"15.08836013","FILE":"3828643","BSTAR":"0.00032910000000","OBJECT_TYPE":"PAYLOAD"},{"MEAN_MOTION_DOT":"-0.00000804","DECAY_DATE":null,"NORAD_CAT_ID":"52350","OBJECT_NAME":"STARLINK-3754","SEMIMAJOR_AXIS":"6917.877","OBJECT_ID":"2022-045V","REV_AT_EPOCH":"4818","TLE_LINE2":"2 52350  53.2165 142.8961 0001393  97.1269 262.9882 15.08841133 48182","EPHEMERIS_TYPE":"0","CLASSIFICATION_TYPE":"U","ARG_OF_PERICENTER":"97.1269","ECCENTRICITY":"0.00013930","PERIOD":"95.437","CENTER_NAME":"EARTH","ELEMENT_SET_NO":"999","SITE":"AFETR","PERIAPSIS":"538.778","MEAN_MOTION_DDOT":"0.0000000000000","MEAN_ELEMENT_THEORY":"SGP4","MEAN_ANOMALY":"262.9882","COUNTRY_CODE":"US","TIME_SYSTEM":"UTC","RCS_SIZE":"MEDIUM","APOAPSIS":"540.706","LAUNCH_DATE":"2022-04-29","BSTAR":"-0.00003245800000","OBJECT_TYPE":"PAYLOAD","MEAN_MOTION":"15.08841133","FILE":"3828819","GP_ID":"226568505","INCLINATION":"53.2165","TLE_LINE1":"1 52350U 22045V   23054.51268367 -.00000804  00000-0 -32458-4 0  9990","REF_FRAME":"TEME","EPOCH":"2023-02-23T12:18:15.869088","RA_OF_ASC_NODE":"142.8961"}];
